PROBA-1                 
1 26958U 01049B   26196.81011498  .00000959  00000+0  65436-4 0  9990
2 26958  97.9600 206.3437 0055745  27.8326 332.5863 15.07616882347932
CUTE-1 (CO-55)          
1 27844U 03031E   26196.48745324  .00000133  00000+0  76487-4 0  9995
2 27844  98.6744 204.6909 0010836 101.9513 258.2882 14.24351670195703
CUBESAT XI-IV (CO-57)   
1 27848U 03031J   26196.49013580  .00000112  00000+0  68039-4 0  9993
2 27848  98.6774 204.3834 0010557 118.6468 241.5773 14.23634657195407
APRIZESAT 4             
1 35684U 09041D   26196.78036154  .00000351  00000+0  48694-4 0  9991
2 35684  98.1404 272.6697 0042262 227.5897 132.1738 14.83914289915604
APRIZESAT 3             
1 35686U 09041F   26196.38626186  .00000843  00000+0  77857-4 0  9998
2 35686  98.2100 350.9673 0060795 335.2868  24.5441 14.96311283920598
PROBA-2                 
1 36037U 09059B   26196.78224373  .00000063  00000+0  25228-4 0  9993
2 36037  98.2459  19.7399 0013046 186.8895 173.2124 14.54873798885686
APRIZESAT 5             
1 37792U 11044E   26196.78682083  .00000398  00000+0  57681-4 0  9994
2 37792  98.2449 130.6392 0050690 270.7469  88.7935 14.81128199803022
APRIZESAT 6             
1 37793U 11044F   26196.34067692  .00000355  00000+0  57569-4 0  9998
2 37793  98.2338 107.4128 0043042 357.8013 119.3307 14.76956881801308
PROBA-V                 
1 39159U 13021A   26196.79525895  .00000017  00000+0  25450-4 0  9995
2 39159  98.3606 173.9925 0005230  58.5603 301.6087 14.23603461685187
APRIZESAT 7             
1 39416U 13066A   26196.86594191  .00000527  00000+0  57497-4 0  9995
2 39416  97.7723 149.6767 0037252 115.1725 245.3365 14.91619931685507
APRIZESAT 8             
1 39425U 13066K   26196.79438213  .00000373  00000+0  46418-4 0  9999
2 39425  97.8230 143.8659 0045539 189.8984 170.1340 14.87697063683928
BUGSAT-1 (TITA)         
1 40014U 14033E   26196.81907549  .00002655  00000+0  14129-3 0  9994
2 40014  98.0433 291.0481 0028986  83.7599 276.6933 15.15882544660176
SAUDISAT 4              
1 40016U 14033G   26196.38761796  .00000216  00000+0  35387-4 0  9991
2 40016  97.7617 341.5528 0044245 343.4405  16.5359 14.79575661650247
APRIZESAT 9             
1 40018U 14033J   26196.30717422  .00000313  00000+0  53331-4 0  9999
2 40018  97.9094 328.8236 0067443 109.5826 251.2681 14.74252703647704
APRIZESAT 10            
1 40019U 14033K   26196.83410106  .00000282  00000+0  52222-4 0  9990
2 40019  97.9682 323.1597 0078785 181.3032 178.7981 14.70911338646464
TECHDEMOSAT-1 (TDS-1)   
1 40076U 14037H   26196.71931794  .00004320  00000+0  24433-3 0  9994
2 40076  98.3826 191.7709 0006953 156.9984 203.1558 15.13684552652540
TECHNOSAT               
1 42829U 17042E   26196.43899655  .00001660  00000+0  12049-3 0  9993
2 42829  97.4317 353.0287 0017408   2.7340 357.3979 15.05111872490953
FLYING LAPTOP           
1 42831U 17042G   26196.84656788  .00002210  00000+0  17553-3 0  9996
2 42831  97.4804 351.3015 0019678  30.4455 329.7908 15.01316441490751
HAWK-A                  
1 43765U 18099H   26196.10718699  .00004044  00000+0  16247-3 0  9991
2 43765  97.3897 247.9822 0034714 184.2471 175.8478 15.24964443417352
HAWK-B                  
1 43794U 18099AN  26196.09655298  .00003480  00000+0  14860-3 0  9998
2 43794  97.3948 247.3278 0031352 202.4031 157.5838 15.23114243417283
HAWK-C                  
1 43799U 18099AT  26196.74013214  .00004815  00000+0  17225-3 0  9992
2 43799  97.3873 249.6613 0040356 181.8834 178.2260 15.28496169418272
SALSAT                  
1 46495U 20068K   26196.46428795  .00004051  00000+0  14153-3 0  9999
2 46495  97.8855 201.2595 0009213 191.9024 168.1999 15.30174422319686
HAWK-2C                 
1 47502U 21006CT  26196.70812345  .00003875  00000+0  11634-3 0  9991
2 47502  97.2264 240.4527 0008661  99.2843 260.9380 15.34993459303871
HAWK-2A                 
1 47505U 21006CW  26196.71033938  .00005149  00000+0  15377-3 0  9992
2 47505  97.2304 241.1493 0008208 102.7240 257.4922 15.35013810303875
HAWK-2B                 
1 47508U 21006CZ  26196.50827137  .00004497  00000+0  13402-3 0  9996
2 47508  97.2176 239.2384 0008754 101.6650 258.5577 15.35139410303841
HAWK-3B                 
1 48931U 21059BE  26196.54584909  .00033868  00000+0  26118-3 0  9998
2 48931  97.6631  35.9858 0004548 196.9727 163.1384 15.71890222282307
HAWK-3C                 
1 48948U 21059BX  26196.54553288  .00033766  00000+0  26041-3 0  9994
2 48948  97.6743  41.7196 0004669 197.3571 162.7532 15.71888957282307
HAWK-3A                 
1 48957U 21059CG  26196.80005911  .00034148  00000+0  26313-3 0  9995
2 48957  97.6690  39.1813 0004657 198.8090 161.3001 15.71906504282343
HAWK-5C                 
1 52754U 22057Y   26196.80210242  .00011569  00000+0  19167-3 0  9990
2 52754  97.6616 358.3396 0002756 344.1504  15.9661 15.52338743230787
HAWK-5B                 
1 52756U 22057AA  26196.80191955  .00011507  00000+0  19065-3 0  9990
2 52756  97.6629 356.6932 0003418 329.6543  30.4510 15.52335758230785
